UNKNOWN                 
1 87245U          26068.28769584  .00004608  00000+0  96148-3 0  9995
2 87245  65.6395 176.1827 0425292  77.7512 316.0770 14.16736547626469
UNKNOWN                 
1 87271U          26068.25633215  .00015701  00000+0  27770-2 0  9992
2 87271  65.7569   3.5198 0420074  27.8210 334.4666 14.23111444624670
UNKNOWN                 
1 87280U          26068.28859064  .00000376  00000+0  70085-3 0  9997
2 87280  64.6175  21.2987 0127694 244.3760 114.4040 13.48644990545523
UNKNOWN                 
1 87293U          26068.65224749  .00004963  00000+0  94722-3 0  9998
2 87293  65.8963 273.9524 0427747 312.8567  43.7312 14.19674453626326
UNKNOWN                 
1 87300U          26066.21799313  .00001971  00000+0  13760-2 0  9999
2 87300 100.1022  62.2322 0026500  68.0932 292.3042 13.99790623624939
UNKNOWN                 
1 87304U          26068.55925609  .00001973  00000+0  29188-3 0  9995
2 87304  74.0178 150.9386 0016207  98.3362 261.9650 14.75835850659285
UNKNOWN                 
1 87320U          26065.23490728  .00001322  00000+0  84097-3 0  9992
2 87320  66.5904 245.0477 0421095   1.2559 358.9462 13.70458541605189
UNKNOWN                 
1 87334U          26068.57976536  .00019703  00000+0  10835-1 0  9992
2 87334  90.0060 271.7047 0066436 325.5712  34.1176 14.10420538398875
UNKNOWN                 
1 87335U          26067.51174320  .00025089  00000+0  13570-1 0  9990
2 87335  89.9945 267.8829 0085054 308.7674  50.5933 14.10569190399058
UNKNOWN                 
1 87405U          26068.54754993  .00003004  00000+0  21185-2 0  9997
2 87405  82.7530 351.6151 0060583  78.8084 281.9885 13.96795200623273
UNKNOWN                 
1 87426U          26067.52390375  .00006285  00000+0  23695-2 0  9999
2 87426  65.7817 101.7790 0070444 255.8891 254.3933 14.30648878634859
UNKNOWN                 
1 87448U          26067.04918282  .00001745  00000+0  14131-2 0  9994
2 87448 100.4509 289.1148 0064053 343.4760  16.4307 13.90881700621096
