CCSDS_OMM_VERS = 2.0
CREATION_DATE  = 
ORIGINATOR     = 

OBJECT_NAME    = UNKNOWN
OBJECT_ID      = 
CENTER_NAME    = EARTH
REF_FRAME      = TEME
TIME_SYSTEM    = UTC
MEAN_ELEMENT_THEORY = SGP/SGP4

EPOCH          = 2026-03-09T06:54:16.920576
MEAN_MOTION    = 14.16736547
ECCENTRICITY   = .0425292
INCLINATION    = 65.6395
RA_OF_ASC_NODE = 176.1827
ARG_OF_PERICENTER = 77.7512
MEAN_ANOMALY   = 316.0770

EPHEMERIS_TYPE = 0
CLASSIFICATION_TYPE = U
NORAD_CAT_ID   = 87245
ELEMENT_SET_NO = 999
REV_AT_EPOCH   = 62646
BSTAR          = .96148E-3
MEAN_MOTION_DOT = .4608E-4
MEAN_MOTION_DDOT = 0

CCSDS_OMM_VERS = 2.0
CREATION_DATE  = 
ORIGINATOR     = 

OBJECT_NAME    = UNKNOWN
OBJECT_ID      = 
CENTER_NAME    = EARTH
REF_FRAME      = TEME
TIME_SYSTEM    = UTC
MEAN_ELEMENT_THEORY = SGP/SGP4

EPOCH          = 2026-03-09T06:09:07.097760
MEAN_MOTION    = 14.23111444
ECCENTRICITY   = .0420074
INCLINATION    = 65.7569
RA_OF_ASC_NODE = 3.5198
ARG_OF_PERICENTER = 27.8210
MEAN_ANOMALY   = 334.4666

EPHEMERIS_TYPE = 0
CLASSIFICATION_TYPE = U
NORAD_CAT_ID   = 87271
ELEMENT_SET_NO = 999
REV_AT_EPOCH   = 62467
BSTAR          = .2777E-2
MEAN_MOTION_DOT = .15701E-3
MEAN_MOTION_DDOT = 0

CCSDS_OMM_VERS = 2.0
CREATION_DATE  = 
ORIGINATOR     = 

OBJECT_NAME    = UNKNOWN
OBJECT_ID      = 
CENTER_NAME    = EARTH
REF_FRAME      = TEME
TIME_SYSTEM    = UTC
MEAN_ELEMENT_THEORY = SGP/SGP4

EPOCH          = 2026-03-09T06:55:34.231296
MEAN_MOTION    = 13.48644990
ECCENTRICITY   = .0127694
INCLINATION    = 64.6175
RA_OF_ASC_NODE = 21.2987
ARG_OF_PERICENTER = 244.3760
MEAN_ANOMALY   = 114.4040

EPHEMERIS_TYPE = 0
CLASSIFICATION_TYPE = U
NORAD_CAT_ID   = 87280
ELEMENT_SET_NO = 999
REV_AT_EPOCH   = 54552
BSTAR          = .70085E-3
MEAN_MOTION_DOT = .376E-5
MEAN_MOTION_DDOT = 0

CCSDS_OMM_VERS = 2.0
CREATION_DATE  = 
ORIGINATOR     = 

OBJECT_NAME    = UNKNOWN
OBJECT_ID      = 
CENTER_NAME    = EARTH
REF_FRAME      = TEME
TIME_SYSTEM    = UTC
MEAN_ELEMENT_THEORY = SGP/SGP4

EPOCH          = 2026-03-09T15:39:14.183136
MEAN_MOTION    = 14.19674453
ECCENTRICITY   = .0427747
INCLINATION    = 65.8963
RA_OF_ASC_NODE = 273.9524
ARG_OF_PERICENTER = 312.8567
MEAN_ANOMALY   = 43.7312

EPHEMERIS_TYPE = 0
CLASSIFICATION_TYPE = U
NORAD_CAT_ID   = 87293
ELEMENT_SET_NO = 999
REV_AT_EPOCH   = 62632
BSTAR          = .94722E-3
MEAN_MOTION_DOT = .4963E-4
MEAN_MOTION_DDOT = 0

CCSDS_OMM_VERS = 2.0
CREATION_DATE  = 
ORIGINATOR     = 

OBJECT_NAME    = UNKNOWN
OBJECT_ID      = 
CENTER_NAME    = EARTH
REF_FRAME      = TEME
TIME_SYSTEM    = UTC
MEAN_ELEMENT_THEORY = SGP/SGP4

EPOCH          = 2026-03-07T05:13:54.606432
MEAN_MOTION    = 13.99790623
ECCENTRICITY   = .00265
INCLINATION    = 100.1022
RA_OF_ASC_NODE = 62.2322
ARG_OF_PERICENTER = 68.0932
MEAN_ANOMALY   = 292.3042

EPHEMERIS_TYPE = 0
CLASSIFICATION_TYPE = U
NORAD_CAT_ID   = 87300
ELEMENT_SET_NO = 999
REV_AT_EPOCH   = 62493
BSTAR          = .1376E-2
MEAN_MOTION_DOT = .1971E-4
MEAN_MOTION_DDOT = 0

CCSDS_OMM_VERS = 2.0
CREATION_DATE  = 
ORIGINATOR     = 

OBJECT_NAME    = UNKNOWN
OBJECT_ID      = 
CENTER_NAME    = EARTH
REF_FRAME      = TEME
TIME_SYSTEM    = UTC
MEAN_ELEMENT_THEORY = SGP/SGP4

EPOCH          = 2026-03-09T13:25:19.726176
MEAN_MOTION    = 14.75835850
ECCENTRICITY   = .0016207
INCLINATION    = 74.0178
RA_OF_ASC_NODE = 150.9386
ARG_OF_PERICENTER = 98.3362
MEAN_ANOMALY   = 261.9650

EPHEMERIS_TYPE = 0
CLASSIFICATION_TYPE = U
NORAD_CAT_ID   = 87304
ELEMENT_SET_NO = 999
REV_AT_EPOCH   = 65928
BSTAR          = .29188E-3
MEAN_MOTION_DOT = .1973E-4
MEAN_MOTION_DDOT = 0

CCSDS_OMM_VERS = 2.0
CREATION_DATE  = 
ORIGINATOR     = 

OBJECT_NAME    = UNKNOWN
OBJECT_ID      = 
CENTER_NAME    = EARTH
REF_FRAME      = TEME
TIME_SYSTEM    = UTC
MEAN_ELEMENT_THEORY = SGP/SGP4

EPOCH          = 2026-03-06T05:38:15.988992
MEAN_MOTION    = 13.70458541
ECCENTRICITY   = .0421095
INCLINATION    = 66.5904
RA_OF_ASC_NODE = 245.0477
ARG_OF_PERICENTER = 1.2559
MEAN_ANOMALY   = 358.9462

EPHEMERIS_TYPE = 0
CLASSIFICATION_TYPE = U
NORAD_CAT_ID   = 87320
ELEMENT_SET_NO = 999
REV_AT_EPOCH   = 60518
BSTAR          = .84097E-3
MEAN_MOTION_DOT = .1322E-4
MEAN_MOTION_DDOT = 0

CCSDS_OMM_VERS = 2.0
CREATION_DATE  = 
ORIGINATOR     = 

OBJECT_NAME    = UNKNOWN
OBJECT_ID      = 
CENTER_NAME    = EARTH
REF_FRAME      = TEME
TIME_SYSTEM    = UTC
MEAN_ELEMENT_THEORY = SGP/SGP4

EPOCH          = 2026-03-09T13:54:51.727104
MEAN_MOTION    = 14.10420538
ECCENTRICITY   = .0066436
INCLINATION    = 90.0060
RA_OF_ASC_NODE = 271.7047
ARG_OF_PERICENTER = 325.5712
MEAN_ANOMALY   = 34.1176

EPHEMERIS_TYPE = 0
CLASSIFICATION_TYPE = U
NORAD_CAT_ID   = 87334
ELEMENT_SET_NO = 999
REV_AT_EPOCH   = 39887
BSTAR          = .10835E-1
MEAN_MOTION_DOT = .19703E-3
MEAN_MOTION_DDOT = 0

CCSDS_OMM_VERS = 2.0
CREATION_DATE  = 
ORIGINATOR     = 

OBJECT_NAME    = UNKNOWN
OBJECT_ID      = 
CENTER_NAME    = EARTH
REF_FRAME      = TEME
TIME_SYSTEM    = UTC
MEAN_ELEMENT_THEORY = SGP/SGP4

EPOCH          = 2026-03-08T12:16:54.612480
MEAN_MOTION    = 14.10569190
ECCENTRICITY   = .0085054
INCLINATION    = 89.9945
RA_OF_ASC_NODE = 267.8829
ARG_OF_PERICENTER = 308.7674
MEAN_ANOMALY   = 50.5933

EPHEMERIS_TYPE = 0
CLASSIFICATION_TYPE = U
NORAD_CAT_ID   = 87335
ELEMENT_SET_NO = 999
REV_AT_EPOCH   = 39905
BSTAR          = .1357E-1
MEAN_MOTION_DOT = .25089E-3
MEAN_MOTION_DDOT = 0

CCSDS_OMM_VERS = 2.0
CREATION_DATE  = 
ORIGINATOR     = 

OBJECT_NAME    = UNKNOWN
OBJECT_ID      = 
CENTER_NAME    = EARTH
REF_FRAME      = TEME
TIME_SYSTEM    = UTC
MEAN_ELEMENT_THEORY = SGP/SGP4

EPOCH          = 2026-03-09T13:08:28.313952
MEAN_MOTION    = 13.96795200
ECCENTRICITY   = .0060583
INCLINATION    = 82.7530
RA_OF_ASC_NODE = 351.6151
ARG_OF_PERICENTER = 78.8084
MEAN_ANOMALY   = 281.9885

EPHEMERIS_TYPE = 0
CLASSIFICATION_TYPE = U
NORAD_CAT_ID   = 87405
ELEMENT_SET_NO = 999
REV_AT_EPOCH   = 62327
BSTAR          = .21185E-2
MEAN_MOTION_DOT = .3004E-4
MEAN_MOTION_DDOT = 0

CCSDS_OMM_VERS = 2.0
CREATION_DATE  = 
ORIGINATOR     = 

OBJECT_NAME    = UNKNOWN
OBJECT_ID      = 
CENTER_NAME    = EARTH
REF_FRAME      = TEME
TIME_SYSTEM    = UTC
MEAN_ELEMENT_THEORY = SGP/SGP4

EPOCH          = 2026-03-08T12:34:25.284000
MEAN_MOTION    = 14.30648878
ECCENTRICITY   = .0070444
INCLINATION    = 65.7817
RA_OF_ASC_NODE = 101.7790
ARG_OF_PERICENTER = 255.8891
MEAN_ANOMALY   = 254.3933

EPHEMERIS_TYPE = 0
CLASSIFICATION_TYPE = U
NORAD_CAT_ID   = 87426
ELEMENT_SET_NO = 999
REV_AT_EPOCH   = 63485
BSTAR          = .23695E-2
MEAN_MOTION_DOT = .6285E-4
MEAN_MOTION_DDOT = 0

CCSDS_OMM_VERS = 2.0
CREATION_DATE  = 
ORIGINATOR     = 

OBJECT_NAME    = UNKNOWN
OBJECT_ID      = 
CENTER_NAME    = EARTH
REF_FRAME      = TEME
TIME_SYSTEM    = UTC
MEAN_ELEMENT_THEORY = SGP/SGP4

EPOCH          = 2026-03-08T01:10:49.395648
MEAN_MOTION    = 13.90881700
ECCENTRICITY   = .0064053
INCLINATION    = 100.4509
RA_OF_ASC_NODE = 289.1148
ARG_OF_PERICENTER = 343.4760
MEAN_ANOMALY   = 16.4307

EPHEMERIS_TYPE = 0
CLASSIFICATION_TYPE = U
NORAD_CAT_ID   = 87448
ELEMENT_SET_NO = 999
REV_AT_EPOCH   = 62109
BSTAR          = .14131E-2
MEAN_MOTION_DOT = .1745E-4
MEAN_MOTION_DDOT = 0

